     3.00           N                   E                   RINEX VERSION / TYPE
BRD_USR             ESA                 20190111 111717  UTCPGM / RUN BY / DATE
 GAL   4.5750E+01  3.1250E-02 -1.9836E-03  0.0000E+00       IONOSPHERIC CORR
GAUT  3.7252902985E-09-1.776356839E-15 432000 2035 GSTB   0 TIME SYSTEM CORR
GPGA -2.8812792152E-09-7.993605777E-15 432000 2035 GSTB   0 TIME SYSTEM CORR
                                                            END OF HEADER
E11 2019 01 11 08 50 00 5.719552107621E-03 9.237055564881E-13 0.000000000000E+00
     5.000000000000E+00 5.281250000000E+00 3.141916587723E-09 1.018506165944E+00
     2.123415470123E-07 2.674272982404E-04 1.711770892143E-06 5.440600486755E+03
     4.638000000000E+05 2.793967723846E-08-8.633007806056E-01-1.862645149231E-09
     9.819054126674E-01 3.167812500000E+02-3.625393884893E-01-5.825242644738E-09
     1.292910997790E-10 2.580000000000E+02 2.035000000000E+03 0.000000000000E+00
     3.120000000000E+00 0.000000000000E+00-1.862645149231E-08 0.000000000000E+00
     4.645000000000E+05 0.000000000000E+00 0.000000000000E+00 0.000000000000E+00
E13 2019 01 11 08 50 00 3.815938835032E-04 4.689582056017E-13 0.000000000000E+00
     5.000000000000E+00 2.184375000000E+01 3.111558180316E-09-9.553259452059E-01
     9.257346391678E-07 3.426612820476E-04 2.564862370491E-06 5.440594211578E+03
     4.638000000000E+05-3.352761268616E-08-8.685910200739E-01-7.078051567078E-08
     9.851465193754E-01 2.983437500000E+02-1.523808686920E+00-5.822385382865E-09
     1.950081228711E-10 2.580000000000E+02 2.035000000000E+03 0.000000000000E+00
     3.120000000000E+00 5.600000000000E+01-4.423782229424E-09 0.000000000000E+00
     4.645000000000E+05 0.000000000000E+00 0.000000000000E+00 0.000000000000E+00
E14 2019 01 11 08 50 00 6.461577955633E-03-5.570655048359E-12 0.000000000000E+00
     5.000000000000E+00 4.262500000000E+01 6.790640000270E-09-2.416959270798E-01
     2.520158886909E-06 1.662737346487E-01 7.985159754753E-06 5.289319458008E+03
     4.638000000000E+05-2.307817339897E-06-1.464914007160E+00 8.195638656616E-08
     8.826043811123E-01 2.056562500000E+02 1.456549765727E+00-1.176620439536E-08
    -3.735869899691E-10 2.580000000000E+02 2.035000000000E+03 0.000000000000E+00
     3.120000000000E+00 5.600000000000E+01 3.306195139885E-08 0.000000000000E+00
     4.645000000000E+05 0.000000000000E+00 0.000000000000E+00 0.000000000000E+00
E19 2019 01 11 08 50 00-9.210023563355E-06 2.984279490192E-13 0.000000000000E+00
     5.000000000000E+00-1.334375000000E+01 3.118701335000E-09-2.170495395263E+00
    -6.351619958878E-07 1.312631648034E-04 1.038610935211E-05 5.440621330261E+03
     4.638000000000E+05 1.490116119385E-08 1.238729779370E+00-1.117587089539E-08
     9.581985764968E-01 1.134062500000E+02 2.381005359916E+00-5.470942172416E-09
     2.257236880119E-10 2.580000000000E+02 2.035000000000E+03 0.000000000000E+00
     3.120000000000E+00 0.000000000000E+00-8.614733815193E-09 0.000000000000E+00
     4.645000000000E+05 0.000000000000E+00 0.000000000000E+00 0.000000000000E+00
E26 2019 01 11 08 50 00 5.032613174990E-03-4.331468517194E-11 0.000000000000E+00
     5.000000000000E+00 1.531250000000E+01 3.232277494475E-09-1.246851708904E+00
     7.934868335724E-07 3.195942845196E-04 2.497807145119E-06 5.440602487564E+03
     4.638000000000E+05-5.029141902924E-08-8.596765941694E-01 5.587935447693E-09
     9.782633435206E-01 2.961250000000E+02-2.014249708397E+00-5.818099490054E-09
     1.778645516296E-10 2.580000000000E+02 2.035000000000E+03 0.000000000000E+00
     3.120000000000E+00 0.000000000000E+00 1.396983861923E-09 0.000000000000E+00
     4.645000000000E+05 0.000000000000E+00 0.000000000000E+00 0.000000000000E+00
E27 2019 01 11 08 50 00 5.520038539544E-04-7.688072400924E-12 0.000000000000E+00
     5.000000000000E+00-1.062500000000E+00 2.722970565511E-09 4.691554697970E-01
     3.352761268616E-08 1.946077682078E-04 8.378177881241E-06 5.440621978760E+03
     4.638000000000E+05 2.235174179077E-08-2.951220332687E+00-4.097819328308E-08
     9.897181339843E-01 1.724375000000E+02-8.392462497692E-01-5.403796518387E-09
    -3.946592962867E-10 2.580000000000E+02 2.035000000000E+03 0.000000000000E+00
     3.120000000000E+00 0.000000000000E+00-3.026798367500E-09 0.000000000000E+00
     4.645000000000E+05 0.000000000000E+00 0.000000000000E+00 0.000000000000E+00
E31 2019 01 11 08 50 00 9.355170186609E-04-9.649170351622E-12 0.000000000000E+00
     5.000000000000E+00 2.750000000000E+00 2.602251251353E-09-1.202936605150E+00
     1.471489667892E-07 2.362168161198E-04 8.715316653252E-06 5.440627490997E+03
     4.638000000000E+05-3.166496753693E-08-2.951268396861E+00 1.862645149231E-08
     9.897211461327E-01 1.677187500000E+02-1.523316093144E+00-5.348079911852E-09
    -3.718012012981E-10 2.580000000000E+02 2.035000000000E+03 0.000000000000E+00
     3.120000000000E+00 0.000000000000E+00 2.328306436539E-10 0.000000000000E+00
     4.645000000000E+05 0.000000000000E+00 0.000000000000E+00 0.000000000000E+00
E33 2019 01 11 08 50 00 8.479006355628E-04 9.947598300641E-14 0.000000000000E+00
     5.000000000000E+00 1.015625000000E+01 3.049055576832E-09-2.611845450304E+00
     5.662441253662E-07 3.672600723803E-04 2.045184373856E-06 5.440596359253E+03
     4.638000000000E+05-5.587935447693E-08-8.686276939672E-01 3.539025783539E-08
     9.851426309391E-01 3.075937500000E+02-1.440843015569E+00-5.762025725785E-09
     1.957224383395E-10 2.580000000000E+02 2.035000000000E+03 0.000000000000E+00
     3.120000000000E+00 5.600000000000E+01-8.381903171539E-09 0.000000000000E+00
     4.645000000000E+05 0.000000000000E+00 0.000000000000E+00 0.000000000000E+00
E36 2019 01 11 08 50 00 7.609860040247E-04-4.462208380573E-12 0.000000000000E+00
     5.000000000000E+00 1.043750000000E+01 3.123701543279E-09 1.432987691152E+00
     5.401670932770E-07 3.341895062476E-04 1.708045601845E-06 5.440596984863E+03
     4.638000000000E+05 4.097819328308E-08-8.686009957122E-01-3.352761268616E-08
     9.851512343604E-01 3.190000000000E+02-1.557002678497E+00-5.832028641688E-09
     1.817932867058E-10 2.580000000000E+02 2.035000000000E+03 0.000000000000E+00
     3.120000000000E+00 5.600000000000E+01 1.164153218269E-09 0.000000000000E+00
     4.645000000000E+05 0.000000000000E+00 0.000000000000E+00 0.000000000000E+00
E12 2019 01 11 07 40 00 5.917182541452E-03 8.436984444415E-11 0.000000000000E+00
     1.260000000000E+02 5.968750000000E+00 3.124415858747E-09 1.804946794525E+00
     2.868473529816E-07 3.946672659367E-04 1.620501279831E-06 5.440602199554E+03
     4.596000000000E+05 3.725290298462E-08-8.632918070661E-01-1.117587089539E-08
     9.819187617949E-01 3.160937500000E+02-8.660461570415E-01-5.833814430359E-09
     9.321816862518E-11 5.210000000000E+02 2.035000000000E+03 0.000000000000E+00
     3.120000000000E+00 0.000000000000E+00-1.559965312481E-08-1.606531441212E-08
     4.645150000000E+05 0.000000000000E+00 0.000000000000E+00 0.000000000000E+00
E13 2019 01 11 08 50 00 3.815935342573E-04 4.831690603169E-13 0.000000000000E+00
     5.000000000000E+00 2.184375000000E+01 3.111558180316E-09-9.553259452059E-01
     9.257346391678E-07 3.426612820476E-04 2.564862370491E-06 5.440594211578E+03
     4.638000000000E+05-3.352761268616E-08-8.685910200739E-01-7.078051567078E-08
     9.851465193754E-01 2.983437500000E+02-1.523808686920E+00-5.822385382865E-09
     1.950081228711E-10 5.210000000000E+02 2.035000000000E+03 0.000000000000E+00
    -1.000000000000E+00 4.550000000000E+02-4.423782229424E-09-5.355104804039E-09
     4.645150000000E+05 0.000000000000E+00 0.000000000000E+00 0.000000000000E+00
E19 2019 01 11 08 50 00-9.210023563355E-06 2.984279490192E-13 0.000000000000E+00
     5.000000000000E+00-1.334375000000E+01 3.118701335000E-09-2.170495395263E+00
    -6.351619958878E-07 1.312631648034E-04 1.038610935211E-05 5.440621330261E+03
     4.638000000000E+05 1.490116119385E-08 1.238729779370E+00-1.117587089539E-08
     9.581985764968E-01 1.134062500000E+02 2.381005359916E+00-5.470942172416E-09
     2.257236880119E-10 2.580000000000E+02 2.035000000000E+03 0.000000000000E+00
     3.120000000000E+00 0.000000000000E+00-8.614733815193E-09 0.000000000000E+00
     4.646000000000E+05 0.000000000000E+00 0.000000000000E+00 0.000000000000E+00
E19 2019 01 11 08 50 00-9.209499694407E-06 3.836930773105E-13 0.000000000000E+00
     5.000000000000E+00-1.334375000000E+01 3.118701335000E-09-2.170495395263E+00
    -6.351619958878E-07 1.312631648034E-04 1.038610935211E-05 5.440621330261E+03
     4.638000000000E+05 1.490116119385E-08 1.238729779370E+00-1.117587089539E-08
     9.581985764968E-01 1.134062500000E+02 2.381005359916E+00-5.470942172416E-09
     2.257236880119E-10 5.210000000000E+02 2.035000000000E+03 0.000000000000E+00
     3.120000000000E+00 0.000000000000E+00-8.614733815193E-09-8.847564458847E-09
     4.646350000000E+05 0.000000000000E+00 0.000000000000E+00 0.000000000000E+00
E14 2019 01 11 08 50 00 6.461577955633E-03-5.570655048359E-12 0.000000000000E+00
     5.000000000000E+00 4.262500000000E+01 6.790640000270E-09-2.416959270798E-01
     2.520158886909E-06 1.662737346487E-01 7.985159754753E-06 5.289319458008E+03
     4.638000000000E+05-2.307817339897E-06-1.464914007160E+00 8.195638656616E-08
     8.826043811123E-01 2.056562500000E+02 1.456549765727E+00-1.176620439536E-08
    -3.735869899691E-10 2.580000000000E+02 2.035000000000E+03 0.000000000000E+00
     3.120000000000E+00 5.600000000000E+01 3.306195139885E-08 0.000000000000E+00
     4.648000000000E+05 0.000000000000E+00 0.000000000000E+00 0.000000000000E+00
